{
  "type": "FeatureCollection",
  "features": [
    {
      "type": "Feature",
      "properties": {
        "norad_id": 30940,
        "name": "FENGYUN 1C DEB",
        "group": "fengyun-1c-debris",
        "lat": -49.82762248332837,
        "lon": 155.04804443648624,
        "alt_km": 894.3212891227422,
        "timestamp": "2025-12-10T23:33:13.097051+00:00",
        "meta_object_name": "FENGYUN 1C DEB",
        "meta_object_id": "1999-025BAE",
        "meta_epoch": "2025-12-05T06:06:10.312128",
        "meta_mean_motion": 14.08285934,
        "meta_eccentricity": 0.00414748,
        "meta_inclination": 98.6226,
        "meta_ra_of_asc_node": 339.9288,
        "meta_arg_of_pericenter": 24.7538,
        "meta_mean_anomaly": 346.6881,
        "meta_ephemeris_type": 0,
        "meta_classification_type": "U",
        "meta_norad_cat_id": 30940,
        "meta_element_set_no": 999,
        "meta_rev_at_epoch": 96027,
        "meta_bstar": 0.000647699,
        "meta_mean_motion_dot": 1.074e-05,
        "meta_mean_motion_ddot": 0,
        "tle_line1": "1 30940U 99025BAE 25339.25428602  .00001074  00000+0  64770-3 0  9990",
        "tle_line2": "2 30940  98.6226 339.9288 0041474  24.7538 346.6881 14.08285934960276"
      },
      "geometry": {
        "type": "Point",
        "coordinates": [
          155.04804443648624,
          -49.82762248332837
        ]
      }
    },
    {
      "type": "Feature",
      "properties": {
        "norad_id": 30941,
        "name": "FENGYUN 1C DEB",
        "group": "fengyun-1c-debris",
        "lat": -4.315278293583301,
        "lon": 21.18002661173235,
        "alt_km": 809.9920758705985,
        "timestamp": "2025-12-10T23:33:13.097060+00:00",
        "meta_object_name": "FENGYUN 1C DEB",
        "meta_object_id": "1999-025BAF",
        "meta_epoch": "2025-12-10T12:37:27.909408",
        "meta_mean_motion": 14.31003264,
        "meta_eccentricity": 0.00342822,
        "meta_inclination": 98.5459,
        "meta_ra_of_asc_node": 201.3824,
        "meta_arg_of_pericenter": 323.3554,
        "meta_mean_anomaly": 36.5284,
        "meta_ephemeris_type": 0,
        "meta_classification_type": "U",
        "meta_norad_cat_id": 30941,
        "meta_element_set_no": 999,
        "meta_rev_at_epoch": 96594,
        "meta_bstar": 0.0028953552,
        "meta_mean_motion_dot": 7.631e-05,
        "meta_mean_motion_ddot": 0,
        "tle_line1": "1 30941U 99025BAF 25344.52601747  .00007631  00000+0  28954-2 0  9998",
        "tle_line2": "2 30941  98.5459 201.3824 0034282 323.3554  36.5284 14.31003264965948"
      },
      "geometry": {
        "type": "Point",
        "coordinates": [
          21.18002661173235,
          -4.315278293583301
        ]
      }
    },
    {
      "type": "Feature",
      "properties": {
        "norad_id": 30942,
        "name": "FENGYUN 1C DEB",
        "group": "fengyun-1c-debris",
        "lat": -64.4291320039013,
        "lon": 1.8879881053900012,
        "alt_km": 949.5710554509033,
        "timestamp": "2025-12-10T23:33:13.097069+00:00",
        "meta_object_name": "FENGYUN 1C DEB",
        "meta_object_id": "1999-025BAG",
        "meta_epoch": "2025-12-10T11:01:13.742112",
        "meta_mean_motion": 14.14834633,
        "meta_eccentricity": 0.01379705,
        "meta_inclination": 98.6797,
        "meta_ra_of_asc_node": 342.7629,
        "meta_arg_of_pericenter": 112.7712,
        "meta_mean_anomaly": 43.1485,
        "meta_ephemeris_type": 0,
        "meta_classification_type": "U",
        "meta_norad_cat_id": 30942,
        "meta_element_set_no": 999,
        "meta_rev_at_epoch": 96612,
        "meta_bstar": 0.00030431529,
        "meta_mean_motion_dot": 6.02e-06,
        "meta_mean_motion_ddot": 0,
        "tle_line1": "1 30942U 99025BAG 25344.45918683  .00000602  00000+0  30432-3 0  9997",
        "tle_line2": "2 30942  98.6797 342.7629 0137970 112.7712  43.1485 14.14834633966123"
      },
      "geometry": {
        "type": "Point",
        "coordinates": [
          1.8879881053900012,
          -64.4291320039013
        ]
      }
    },
    {
      "type": "Feature",
      "properties": {
        "norad_id": 30943,
        "name": "FENGYUN 1C DEB",
        "group": "fengyun-1c-debris",
        "lat": -22.53461523362077,
        "lon": 2.640775581355877,
        "alt_km": 885.542088804129,
        "timestamp": "2025-12-10T23:33:13.097077+00:00",
        "meta_object_name": "FENGYUN 1C DEB",
        "meta_object_id": "1999-025BAH",
        "meta_epoch": "2025-12-10T06:33:51.503328",
        "meta_mean_motion": 14.04483311,
        "meta_eccentricity": 0.0050936,
        "meta_inclination": 98.7971,
        "meta_ra_of_asc_node": 358.2711,
        "meta_arg_of_pericenter": 72.5444,
        "meta_mean_anomaly": 288.1283,
        "meta_ephemeris_type": 0,
        "meta_classification_type": "U",
        "meta_norad_cat_id": 30943,
        "meta_element_set_no": 999,
        "meta_rev_at_epoch": 95707,
        "meta_bstar": 0.00042584,
        "meta_mean_motion_dot": 6.45e-06,
        "meta_mean_motion_ddot": 0,
        "tle_line1": "1 30943U 99025BAH 25344.27351277  .00000645  00000+0  42584-3 0  9996",
        "tle_line2": "2 30943  98.7971 358.2711 0050936  72.5444 288.1283 14.04483311957077"
      },
      "geometry": {
        "type": "Point",
        "coordinates": [
          2.640775581355877,
          -22.53461523362077
        ]
      }
    },
    {
      "type": "Feature",
      "properties": {
        "norad_id": 30944,
        "name": "FENGYUN 1C DEB",
        "group": "fengyun-1c-debris",
        "lat": -37.5421194128878,
        "lon": -146.2932178817146,
        "alt_km": 762.4759290337779,
        "timestamp": "2025-12-10T23:33:13.097086+00:00",
        "meta_object_name": "FENGYUN 1C DEB",
        "meta_object_id": "1999-025BAJ",
        "meta_epoch": "2025-12-10T02:52:03.915264",
        "meta_mean_motion": 14.52437026,
        "meta_eccentricity": 0.01493083,
        "meta_inclination": 98.8509,
        "meta_ra_of_asc_node": 39.6755,
        "meta_arg_of_pericenter": 108.5299,
        "meta_mean_anomaly": 283.716,
        "meta_ephemeris_type": 0,
        "meta_classification_type": "U",
        "meta_norad_cat_id": 30944,
        "meta_element_set_no": 999,
        "meta_rev_at_epoch": 99038,
        "meta_bstar": 0.00023463449,
        "meta_mean_motion_dot": 1.05e-05,
        "meta_mean_motion_ddot": 0,
        "tle_line1": "1 30944U 99025BAJ 25344.11948976  .00001050  00000+0  23463-3 0  9994",
        "tle_line2": "2 30944  98.8509  39.6755 0149308 108.5299 283.7160 14.52437026990385"
      },
      "geometry": {
        "type": "Point",
        "coordinates": [
          -146.2932178817146,
          -37.5421194128878
        ]
      }
    },
    {
      "type": "Feature",
      "properties": {
        "norad_id": 30945,
        "name": "FENGYUN 1C DEB",
        "group": "fengyun-1c-debris",
        "lat": 66.47232231681397,
        "lon": -164.1604541191858,
        "alt_km": 778.2090672395825,
        "timestamp": "2025-12-10T23:33:13.097095+00:00",
        "meta_object_name": "FENGYUN 1C DEB",
        "meta_object_id": "1999-025BAK",
        "meta_epoch": "2025-12-09T00:16:03.912096",
        "meta_mean_motion": 14.29662074,
        "meta_eccentricity": 0.00307859,
        "meta_inclination": 99.3876,
        "meta_ra_of_asc_node": 351.3861,
        "meta_arg_of_pericenter": 48.4926,
        "meta_mean_anomaly": 7.9541,
        "meta_ephemeris_type": 0,
        "meta_classification_type": "U",
        "meta_norad_cat_id": 30945,
        "meta_element_set_no": 999,
        "meta_rev_at_epoch": 96384,
        "meta_bstar": 0.0021106478,
        "meta_mean_motion_dot": 5.39e-05,
        "meta_mean_motion_ddot": 0,
        "tle_line1": "1 30945U 99025BAK 25343.01115639  .00005390  00000+0  21106-2 0  9997",
        "tle_line2": "2 30945  99.3876 351.3861 0030785  48.4926   7.9541 14.29662074963845"
      },
      "geometry": {
        "type": "Point",
        "coordinates": [
          -164.1604541191858,
          66.47232231681397
        ]
      }
    },
    {
      "type": "Feature",
      "properties": {
        "norad_id": 30946,
        "name": "FENGYUN 1C DEB",
        "group": "fengyun-1c-debris",
        "lat": -48.65153374790992,
        "lon": 110.46988548037108,
        "alt_km": 762.3265218931274,
        "timestamp": "2025-12-10T23:33:13.097104+00:00",
        "meta_object_name": "FENGYUN 1C DEB",
        "meta_object_id": "1999-025BAL",
        "meta_epoch": "2025-12-09T18:40:10.165152",
        "meta_mean_motion": 14.48118371,
        "meta_eccentricity": 0.0089292,
        "meta_inclination": 99.0394,
        "meta_ra_of_asc_node": 98.7614,
        "meta_arg_of_pericenter": 201.7526,
        "meta_mean_anomaly": 317.3185,
        "meta_ephemeris_type": 0,
        "meta_classification_type": "U",
        "meta_norad_cat_id": 30946,
        "meta_element_set_no": 999,
        "meta_rev_at_epoch": 98308,
        "meta_bstar": 0.0014631271,
        "meta_mean_motion_dot": 5.678e-05,
        "meta_mean_motion_ddot": 0,
        "tle_line1": "1 30946U 99025BAL 25343.77789543  .00005678  00000+0  14631-2 0  9996",
        "tle_line2": "2 30946  99.0394  98.7614 0089292 201.7526 317.3185 14.48118371983080"
      },
      "geometry": {
        "type": "Point",
        "coordinates": [
          110.46988548037108,
          -48.65153374790992
        ]
      }
    }
  ]
}